BEIDOU-3 M16 (C35)      
1 43647U 18078A   25021.30787542 -.00000094  00000+0  00000+0 0  9996
2 43647  54.5432 317.8680 0007829  13.8527 346.1846  1.86232408 42624
BEIDOU-3 M15 (C34)      
1 43648U 18078B   25021.97401176 -.00000092  00000+0  00000+0 0  9994
2 43648  54.5382 317.8470 0004685  15.7157 344.3147  1.86232205 42655
BEIDOU-3 G1 (C59)       
1 43683U 18085A   25022.42305185 -.00000260  00000+0  00000+0 0  9992
2 43683   2.7376 102.1365 0000952  37.1266 275.0836  1.00270082 22937
COSMOS 2529 (757)       
1 43687U 18086A   25021.21954525  .00000104  00000+0  00000+0 0  9997
2 43687  64.2949 209.8914 0006624 258.7624 101.1879  2.13102116 48375
BEIDOU-3 M17 (C36)      
1 43706U 18093A   25022.12737609  .00000108  00000+0  00000+0 0  9994
2 43706  54.1951 199.6352 0006061 299.0987  60.8421  1.86228537 42020
BEIDOU-3 M18 (C37)      
1 43707U 18093B   25021.99092780  .00000107  00000+0  00000+0 0  9992
2 43707  54.1959 199.6316 0005895 343.8738  16.1087  1.86230030 42017
GPS BIII-1  (PRN 04)    
1 43873U 18109A   25022.42708194 -.00000029  00000+0  00000+0 0  9990
2 43873  55.3917 112.3621 0032921 195.0345 134.2020  2.00564002 44826
BEIDOU-3 IGSO-1 (C38)   
1 44204U 19023A   25021.45414086 -.00000198  00000+0  00000+0 0  9998
2 44204  57.9631  42.9420 0023705 225.5758 134.6779  1.00289549  2084
BEIDOU-2 G8 (C01)       
1 44231U 19027A   25022.42392065 -.00000229  00000+0  00000+0 0  9997
2 44231   2.0234  74.8919 0004604 214.0292 130.2173  1.00271365 20957
COSMOS 2534 (758)       
1 44299U 19030A   25022.25368615  .00000114  00000+0  00000+0 0  9992
2 44299  64.3679 209.8304 0008834 288.6768 278.8785  2.13102325 44034
BEIDOU-3 IGSO-2 (C39)   
1 44337U 19035A   25021.79111928 -.00000088  00000+0  00000+0 0  9992
2 44337  55.1997 163.3511 0035763 198.0663 162.9824  1.00271737 20547
GPS BIII-2  (PRN 18)    
1 44506U 19056A   25022.23461314 -.00000087  00000+0  00000+0 0  9999
2 44506  55.8176 351.4149 0048619 194.6403 258.9576  2.00559842 39824
BEIDOU-3 M24 (C46)      
1 44542U 19061A   25022.06119954  .00000108  00000+0  00000+0 0  9999
2 44542  54.4231 199.9670 0008849  19.8694 340.1671  1.86229260 36273
BEIDOU-3 M23 (C45)      
1 44543U 19061B   25021.55157278  .00000105  00000+0  00000+0 0  9991
2 44543  54.4214 199.9529 0005531  19.2944 271.7024  1.86229567 36265
BEIDOU-3 IGSO-3 (C40)   
1 44709U 19073A   25022.12715592 -.00000181  00000+0  00000+0 0  9996
2 44709  55.6749 286.4003 0041151 183.4540 176.5898  1.00290255 19336
BEIDOU-3 M22 (C44)      
1 44793U 19078A   25021.90508770 -.00000093  00000+0  00000+0 0  9999
2 44793  54.3899 317.7526 0006692  18.6210 341.4194  1.86232031 35122
BEIDOU-3 M21 (C43)      
1 44794U 19078B   25022.03519533 -.00000092  00000+0  00000+0 0  9993
2 44794  54.3632 317.7194 0004846   8.9837 351.0410  1.86227795 35135
COSMOS 2544 (759)       
1 44850U 19088A   25022.47313592 -.00000029  00000+0  00000+0 0  9992
2 44850  65.2891  90.8119 0014783 255.0052 104.8892  2.13102076 39831
BEIDOU-3 M19 (C41)      
1 44864U 19090A   25022.49324684 -.00000050  00000+0  00000+0 0  9990
2 44864  56.1084  79.7334 0019167 281.6637 217.8124  1.86231659 34724
BEIDOU-3 M20 (C42)      
1 44865U 19090B   25022.21249869 -.00000051  00000+0  00000+0 0  9993
2 44865  56.1098  79.7764 0016533 293.3594 107.5786  1.86231648 34708
BEIDOU-3 G2 (C60)       
1 45344U 20017A   25022.41114922 -.00000123  00000+0  00000+0 0  9990
2 45344   2.6273  36.9356 0003012 272.4066  40.7061  1.00272486 18138
COSMOS 2545 (760)       
1 45358U 20018A   25022.20051251 -.00000074  00000+0  00000+0 0  9993
2 45358  64.6461 330.3243 0010401 256.0166 103.8746  2.13102595 37775
BEIDOU-3 G3 (C61)       
1 45807U 20040A   25022.41714398 -.00000334  00000+0  00000+0 0  9997
2 45807   1.2222  59.4906 0003875 310.5705  12.6506  1.00269896 16943
GPS BIII-3  (PRN 23)    
1 45854U 20041A   25022.23620493 -.00000055  00000+0  00000+0 0  9992
2 45854  56.3031  48.8398 0050785 198.9775 196.4146  2.00569119 33793
GALAXY 30 (WAAS/PRN 135)
1 46114U 20056C   25022.44355003  .00000057  00000+0  00000+0 0  9994
2 46114   0.0161  73.6979 0002006 239.1768 203.8174  1.00272868 16175
COSMOS 2547 (705K)      
1 46805U 20075A   25021.91742521  .00000112  00000+0  00000+0 0  9990
2 46805  64.5976 209.5481 0005708 230.2597 129.7160  2.13103034 33019
GPS BIII-4  (PRN 14)    
1 46826U 20078A   25022.47941788  .00000086  00000+0  00000+0 0  9994
2 46826  54.1033 231.4999 0052766 198.3079 344.9217  2.00559694 31266
GPS BIII-5  (PRN 11)    
1 48859U 21054A   25021.65540685 -.00000089  00000+0  00000+0 0  9991
2 48859  55.3476 352.9878 0019103 231.0283 264.1327  2.00572569 26493
QZS-1R (QZSS/PRN 196)   
1 49336U 21096A   25020.50604719 -.00000289  00000+0  00000+0 0  9992
2 49336  36.3956  87.2445 0759284 272.0678  75.6477  1.00248688 11865
GSAT0223 (GALILEO 27)   
1 49809U 21116A   25019.14616095 -.00000090  00000+0  00000+0 0  9998
2 49809  57.2848 355.5467 0003606 261.4776 100.1822  1.70475859 19425
GSAT0224 (GALILEO 28)   
1 49810U 21116B   25019.83799487 -.00000088  00000+0  00000+0 0  9990
2 49810  57.2856 355.5267 0002987 270.6381 268.1512  1.70475947 19451
COSMOS 2557 (706K)      
1 52984U 22075A   25022.08390184 -.00000074  00000+0  00000+0 0  9998
2 52984  64.5789 332.4382 0013441 282.9463  76.9091  2.13101894 19822
COSMOS 2559 (707K)      
1 54031U 22130A   25022.02747523 -.00000074  00000+0  00000+0 0  9992
2 54031  64.5511 332.5501 0006858 237.0897 122.8499  2.13101319 17799
COSMOS 2564 (761)       
1 54377U 22161A   25021.74800258  .00000110  00000+0  00000+0 0  9992
2 54377  64.7392 209.6981 0007899 204.1101 155.8788  2.13102170 16732
GPS BIII-6  (PRN 28)    
1 55268U 23009A   25020.92671028  .00000068  00000+0  00000+0 0  9996
2 55268  55.0918 168.6309 0001821  67.3072 298.6404  2.00548359 14965
BEIDOU-3 G4 (C62)       
1 56564U 23066A   25022.35516108 -.00000090  00000+0  00000+0 0  9991
2 56564   1.5788 289.5733 0002440 257.8352 222.3597  1.00273371  6275
IRNSS-1J (NVS-01)       
1 56759U 23076A   25022.42096671 -.00000313  00000+0  00000+0 0  9992
2 56759   3.4360 261.0067 0007692  17.5578 124.5277  1.00270767  5990
COSMOS 2569 (703K)      
1 57517U 23114A   25022.23288577 -.00000030  00000+0  00000+0 0  9991
2 57517  65.0189  89.8901 0011642 289.8810  70.0524  2.13104218 11373
BEIDOU-3 M28 (C50)      
1 58654U 23207A   25022.11747711 -.00000053  00000+0  00000+0 0  9999
2 58654  55.2946  79.6091 0003894 274.5201  85.4949  1.86232088  7327
BEIDOU-3 M26 (C48)      
1 58655U 23207B   25021.91696665 -.00000054  00000+0  00000+0 0  9999
2 58655  55.2964  79.6018 0004973 261.2996  98.7035  1.86231588  7305
GSAT0225 (GALILEO 29)   
1 59598U 24079A   25022.49679676 -.00000015  00000+0  00000+0 0  9998
2 59598  54.8150 115.3703 0002672 203.2521 158.6706  1.70475376  4617
GSAT0227 (GALILEO 30)   
1 59600U 24079C   25020.33070949 -.00000015  00000+0  00000+0 0  9991
2 59600  54.8080 115.4306 0001957 136.6814 223.3504  1.70475123  4629
GSAT0232 (GALILEO 32)   
1 61182U 24167A   25021.61968765  .00000072  00000+0  00000+0 0  9993
2 61182  55.3583 235.3493 0001614 178.4608  88.0850  1.70473845  2150
GSAT0226 (GALILEO 31)   
1 61183U 24167B   25021.35117014  .00000070  00000+0  00000+0 0  9996
2 61183  55.3567 235.3624 0001796  99.1741 115.1151  1.70473972  2121
GPS BIII-7  (PRN 01)    
1 62339U 24242A   25022.38640175 -.00000087  00000+0  00000+0 0  9996
2 62339  54.9979 354.8599 0004408 293.0499 132.0405  2.00555656  1014
